{
  "version": 0.6,
  "generator": "Overpass API 0.7.62.8 e802775f",
  "osm3s": {
    "timestamp_osm_base": "2025-08-23T09:55:30Z",
    "timestamp_areas_base": "2025-08-23T05:18:28Z",
    "copyright": "The data included in this document is from www.openstreetmap.org. The data is made available under ODbL."
  },
  "elements": [

{
  "type": "node",
  "id": 12588945794,
  "lat": -19.7958188,
  "lon": -43.9902090,
  "tags": {
    "CBTC": "BitcoinBH",
    "OBTC": "UAIBIT",
    "addr:city": "Belo Horizonte",
    "addr:housenumber": "315",
    "addr:street": "Rua Joaquim Henrique Filho",
    "addr:suburb": "Maria Helena",
    "amenity": "restaurant",
    "currency:XBT": "yes",
    "name": "Espetinho do Teteu",
    "opening_hours": "We-Fr 17:00-00:00; Sa-Su 12:00-00:00",
    "payment:coins": "yes",
    "payment:contactless": "yes",
    "payment:credit_cards": "yes",
    "payment:google_pay": "yes",
    "payment:lightning": "yes",
    "payment:lightning_contactless": "yes",
    "payment:onchain": "yes"
  }
},
{
  "type": "node",
  "id": 12618816495,
  "lat": -19.8430171,
  "lon": -43.9191272,
  "tags": {
    "CBTC": "BitcoinBH",
    "OBTC": "UAIBIT",
    "addr:city": "Belo Horizonte",
    "addr:street": "Avenida Saramenha",
    "check_date": "2025-04-17",
    "currency:BRL": "yes",
    "currency:XBT": "yes",
    "description": "LG Cal√ßados, oferece uma sele√ß√£o premium de t√™nis, sand√°lias, botas e sapatos sociais para todos os estilos e ocasi√µes. Nosso foco √© unir conforto e durabilidade, garantindo que voc√™ caminhe sempre com seguran√ßa e estilo.",
    "image": "https://raw.githubusercontent.com/UAIBIT/PBTC/refs/heads/main/LGCalcados.jpg",
    "name": "LG cal√ßados",
    "opening_hours": "Mo-Su 08:00-19:00",
    "payment:apple_pay": "yes",
    "payment:credit_cards": "yes",
    "payment:google_pay": "yes",
    "phone": "+55 31 99258 7346",
    "shop": "shoes"
  }
},
{
  "type": "node",
  "id": 12644175177,
  "lat": -19.7965787,
  "lon": -43.9898174,
  "tags": {
    "CBTC": "BitcoinBH",
    "OBTC": "UAIBIT",
    "addr:city": "Belo Horizonte",
    "addr:housenumber": "500",
    "addr:postcode": "31660-320",
    "addr:street": "Rua das Ch√°caras",
    "addr:suburb": "Maria Helena",
    "check_date": "2025-04-17",
    "currency:BRL": "yes",
    "currency:XBT": "yes",
    "hairdresser": "barber",
    "name": "BRAVE MEN'S",
    "opening_hours": "Tu-Sa 09:30-19:00",
    "operator": "Andre",
    "payment:apple_pay": "yes",
    "payment:cash": "yes",
    "payment:contactless": "yes",
    "payment:credit_cards": "yes",
    "payment:google_pay": "yes",
    "payment:lightning": "yes",
    "payment:lightning_contactless": "yes",
    "payment:onchain": "yes",
    "phone": "+55 31 99751 8370",
    "shop": "hairdresser",
    "website": "https://booksy.com/pt-br/137432_barbearia-brave-mens_barbearias_459592_belo-horizonte"
  }
},
{
  "type": "node",
  "id": 12682198306,
  "lat": -19.2192287,
  "lon": -45.0028517,
  "tags": {
    "CBTC": "BitcoinPompeu",
    "OBTC": "UAIBIT",
    "addr:city": "Pomp√©u",
    "addr:housenumber": "65",
    "addr:postcode": "35640000",
    "addr:street": "Rua Aurora Torquato",
    "addr:suburb": "Centro",
    "amenity_1": "drinking_water",
    "currency:XBT": "yes",
    "description": "Corte de cabelo Masculino e Feminino.  Agende seu hor√°rio pelo whatsapp 37999231316",
    "female": "yes",
    "instagram": "https://www.instagram.com/guilhermefranco/",
    "male": "yes",
    "name": "Studio Guilherme Franco",
    "opening_hours": "Mo-Fr 09:00-19:00 Sun 09:00-16:00",
    "operator": "Guilherme Franco",
    "payment:apple_pay": "yes",
    "payment:cash": "yes",
    "payment:contactless": "yes",
    "payment:credit_cards": "yes",
    "payment:debit_cards": "yes",
    "payment:lightning": "yes",
    "payment:lightning_contactless": "yes",
    "payment:mastercard": "yes",
    "payment:notes": "yes",
    "payment:onchain": "yes",
    "payment:visa": "yes",
    "payment:visa_electron": "yes",
    "phone": "37999231316",
    "shop": "hairdresser",
    "survey:date": "2025-03-19"
  }
},
{
  "type": "node",
  "id": 12712337558,
  "lat": -19.9346612,
  "lon": -44.0990684,
  "tags": {
    "CBTC": "UAIBIT",
    "OBTC": "UAIBIT",
    "access": "yes",
    "addr:city": "Betim",
    "addr:housenumber": "1284",
    "addr:postcode": "32678-620",
    "addr:street": "Avenida Nova York",
    "addr:suburb": "Capelinha",
    "check_date": "2025-08-15",
    "contact:instagram": "https://www.instagram.com/tidas_bar",
    "currency:BRL": "yes",
    "currency:XBT": "yes",
    "lat": "-19.9346637",
    "lon": "-44.0990956",
    "name": "Tildas Bar",
    "opening_hours": "Mon-Thu 7:30-23:00 Fri-Sat 7:30-00:00 Sun 7:30-22:00",
    "payment:apple_pay": "yes",
    "payment:credit_cards": "yes",
    "payment:google_pay": "yes",
    "payment:lightning": "yes",
    "payment:lightning_contactless": "yes",
    "payment:onchain": "yes",
    "phone": "+55 31 3531 8412",
    "shop": "alcohol",
    "survey:date": "2025-08-15",
    "website": "https://www.instagram.com/tidas_bar"
  }
},
{
  "type": "node",
  "id": 12740118659,
  "lat": -19.6547091,
  "lon": -43.9145878,
  "tags": {
    "CBTC": "LagoaBitcoin",
    "OBTC": "UAIBIT",
    "addr:city": "Lagoa Santa",
    "addr:housenumber": "496",
    "addr:postcode": "33239-876",
    "addr:street": "Av. Das √Årvores",
    "addr:suburb": "Vila Jardim Pres",
    "amenity": "restaurant",
    "check_date": "2025-04-18",
    "cuisine": "mediterranean;fish;fish_and_chips;barbecue;grill",
    "currency:XBT": "yes",
    "delivery": "yes",
    "description": "Venha conhecer o Toca do Surubim em Lagoa Santa! Delicie-se com peixes frescos e pratos incr√≠veis, em um ambiente acolhedor com m√∫sica ao vivo. Atendimento top e sabores que conquistam!",
    "diet:fish": "yes",
    "diet:meat": "yes",
    "diet:mediterranean": "yes",
    "diet:non-vegetarian": "yes",
    "diet:seafood": "yes",
    "diet:sugar_free": "yes",
    "diet:vegan": "yes",
    "image": "https://github.com/UAIBIT/PBTC/blob/main/TocaSurubim.jpg",
    "name": "Toca do Surubim",
    "opening_hours": "Tu 17:00-0:00 We-Sa 11:00-00:00 Su 11:00-23:00",
    "payment:apple_pay": "yes",
    "payment:cash": "yes",
    "payment:contactless": "yes",
    "payment:credit_cards": "yes",
    "payment:debit_cards": "yes",
    "payment:google_pay": "yes",
    "payment:lightning": "yes",
    "payment:lightning_contactless": "yes",
    "payment:mastercard": "yes",
    "payment:onchain": "yes",
    "payment:visa": "yes",
    "payment:visa_electron": "yes",
    "phone": "03125762186",
    "survey:date": "2025-04-08",
    "takeaway": "yes",
    "website": "https://www.instagram.com/tocadosurubimoficia"
  }
},
{
  "type": "node",
  "id": 12748053114,
  "lat": -19.6290142,
  "lon": -43.8899903,
  "tags": {
    "CBTC": "LagoaBitcoin",
    "OBTC": "UAIBIT",
    "addr:city": "Lagoa Santa",
    "addr:housenumber": "175",
    "addr:postcode": "3440000",
    "addr:street": "Rua Cec√≠lia Dolabela Portela",
    "addr:suburb": "Centro",
    "amenity": "restaurant",
    "cuisine": "italian;pizza;pasta",
    "currency:XBT": "yes",
    "image": "https://raw.githubusercontent.com/UAIBIT/PBTC/refs/heads/main/dombiondini.webp",
    "name": "Ristorante Don Biondini",
    "opening_hours": "Tu-Th 18:00-23:00 Fr-Sa 18:30-00:00 Su 18:30-21:00",
    "payment:apple_pay": "yes",
    "payment:google_pay": "yes",
    "payment:lightning": "yes",
    "phone": "+55 31 98393-1534",
    "survey:date": "2025-04-11",
    "website": "https://www.instagram.com/donbiondini/"
  }
},
{
  "type": "node",
  "id": 12757467968,
  "lat": -19.6453368,
  "lon": -43.9057759,
  "tags": {
    "CBTC": "LagoaBitcoin",
    "OBTC": "UAIBIT",
    "addr:city": "Lagoa Santa",
    "addr:housenumber": "174",
    "addr:postcode": "33239-206",
    "addr:street": "Rua Coronel Dur√£es",
    "addr:suburb": "Bela Vista",
    "air_conditioning": "yes",
    "amenity": "cafe",
    "currency:BRL": "yes",
    "currency:XBT": "yes",
    "description": "Na Go Fit voc√™ tem a op√ß√£o de fazer refei√ß√µes equilibradas nutricionalmente, com carboidratos, incluindo fibras, tudo na medida correta; prote√≠nas de alto valor biol√≥gico, gorduras saud√°veis em quantidade moderada, e tamb√©m, vitaminas e minerais. Em outra",
    "diet:gluten_free": "yes",
    "diet:healthy": "yes",
    "diet:lacto-ovo_vegetarian": "yes",
    "diet:lacto_vegetarian": "yes",
    "diet:lactose_free": "yes",
    "diet:non-vegetarian": "yes",
    "diet:vegan": "yes",
    "diet:vegetarian": "yes",
    "internet_access": "yes",
    "internet_access:fee": "no",
    "name": "Go Fit Estilo de Vida Saud√°vel",
    "opening_hours": "Mo-Fr 08:00-18:00 Sa 08:00-13:00",
    "outdoor_seating": "no",
    "payment:cash": "yes",
    "payment:coins": "yes",
    "payment:credit_cards": "yes",
    "payment:debit_cards": "yes",
    "payment:lightning": "yes",
    "phone": "31975244266",
    "survey:date": "2025-04-15",
    "takeaway": "yes",
    "website": "https://www.instagram.com/gofit.lifestyle",
    "website:menu": "https://www.whatsapp.com/catalog/553175244266"
  }
},
{
  "type": "node",
  "id": 12861817280,
  "lat": -20.3852209,
  "lon": -43.5051475,
  "tags": {
    "CBTC": "RepublicaDoBitcoin",
    "OBTC": "UAIBIT",
    "addr:city": "Ouro Preto",
    "addr:housenumber": "160",
    "addr:postcode": "35400078",
    "addr:street": "Rua Conde de Bobadela",
    "addr:suburb": "Centro",
    "amenity": "restaurant",
    "cuisine": "burger;sandwich;barbecue;portuguese;grill",
    "currency:XBT": "yes",
    "description": "Pub cervejeiro, restaurante, steakhouse e loca√ß√£o para eventos corporativos. Consulte sobre as datas e horarios em epocas  festivas.",
    "diet:meat": "yes",
    "diet:non-vegetarian": "yes",
    "name": "Rep√∫blica Cervejeira",
    "opening_hours": "Mo-Su 18:00-00:00",
    "payment:cash": "yes",
    "payment:credit_cards": "yes",
    "payment:debit_cards": "yes",
    "payment:lightning": "yes",
    "payment:lightning_contactless": "yes",
    "phone": "31999996198",
    "survey:date": "2025-06-25",
    "website": "https://republicacervejeira.com.br/"
  }
},
{
  "type": "node",
  "id": 12873206744,
  "lat": -19.9443629,
  "lon": -43.9319619,
  "tags": {
    "CBTC": "BitcoinBH",
    "OBTC": "UAIBIT",
    "addr:city": "Belo Horizonte",
    "addr:housenumber": "378",
    "addr:postcode": "30310370",
    "addr:street": "Rua Montes Claros",
    "addr:suburb": "Sion",
    "check_date": "2025-05-19",
    "currency:BRL": "yes",
    "currency:XBT": "yes",
    "description": "Delivery de Chopp para festas e eventos.",
    "lat": "-19.9443455",
    "lon": "-43.9319440",
    "name": "Chopp em BH üçª",
    "opening_hours": "Mo-Su 08:00-17:00",
    "payment:apple_pay": "yes",
    "payment:credit_cards": "yes",
    "payment:google_pay": "yes",
    "phone": "31994048008",
    "shop": "beverages",
    "survey:date": "2025-05-19"
  }
},
{
  "type": "node",
  "id": 12888586053,
  "lat": -19.8675621,
  "lon": -43.9644264,
  "tags": {
    "CBTC": "BitcoinBH",
    "OBTC": "UAIBIT",
    "addr:city": "Belo Horizonte",
    "addr:housenumber": "sn",
    "addr:postcode": "32210800",
    "addr:street": "Prof. Eduardo Frieiro, S/N",
    "addr:suburb": "Praca Central UFMG",
    "amenity": "fast_food",
    "check_date": "2025-05-21",
    "currency:BRL": "yes",
    "currency:XBT": "yes",
    "description": "Food Truck de Pizza Localizado dentro do Campus da UFMG",
    "lat": "-19.8676201",
    "lon": "-43.9644469",
    "name": "Zonatto D'Italia",
    "payment:apple_pay": "yes",
    "payment:credit_cards": "yes",
    "payment:google_pay": "yes",
    "payment:lightning": "yes",
    "payment:onchain": "yes",
    "phone": "+5531984284784",
    "survey:date": "2025-05-22"
  }
},
{
  "type": "node",
  "id": 12899226015,
  "lat": -19.9760306,
  "lon": -43.9787335,
  "tags": {
    "CBTC": "BitcoinBH",
    "OBTC": "UAIBIT",
    "addr:city": "Belo Horizonte",
    "addr:housenumber": "200",
    "addr:postcode": "30575835",
    "addr:street": "R. Francisco Castro Monteiro",
    "addr:suburb": "Buritis",
    "check_date": "2025-05-22",
    "currency:BRL": "yes",
    "currency:XBT": "yes",
    "description": "Buritis delivery",
    "lat": "-19.9760095",
    "lon": "-43.9787511",
    "name": "Buritis Delivery",
    "opening_hours": "Mo-Su 08:00-22:00",
    "payment:apple_pay": "yes",
    "payment:credit_cards": "yes",
    "payment:google_pay": "yes",
    "phone": "+5531975966531",
    "shop": "beverages",
    "survey:date": "2025-05-22"
  }
},
{
  "type": "node",
  "id": 12917633215,
  "lat": -15.7425515,
  "lon": -43.0267118,
  "tags": {
    "CBTC": "BitcoinBH",
    "OBTC": "UAIBIT",
    "access": "yes",
    "addr:city": "Porteirinha - MG",
    "addr:housenumber": "267",
    "addr:postcode": "39520-000",
    "addr:street": "Avenida Major Fid√™ncio Cangussu",
    "addr:suburb": "Centro",
    "check_date": "2025-06-15",
    "contact:instagram": "https://www.instagram.com/oticaisisprimeoficial",
    "currency:BRL": "yes",
    "currency:XBT": "yes",
    "description": "Loja 01",
    "lat": "-15.7425712",
    "lon": "-43.0266652",
    "name": "√ìtica √çsis Prime",
    "opening_hours": "Mo-Fr 8:00-18:00  Sa 8:00-13:00",
    "payment:apple_pay": "yes",
    "payment:credit_cards": "yes",
    "payment:google_pay": "yes",
    "payment:lightning": "yes",
    "payment:lightning_contactless": "yes",
    "payment:onchain": "yes",
    "phone": "+55 38 99808-1121",
    "shop": "optician",
    "survey:date": "2025-06-15",
    "website": "https://beacons.ai/oticaisisprime"
  }
},
{
  "type": "node",
  "id": 12917685248,
  "lat": -15.7449081,
  "lon": -43.0266805,
  "tags": {
    "CBTC": "BitcoinBH",
    "OBTC": "UAIBIT",
    "access": "yes",
    "addr:city": "Porteirinha - MG",
    "addr:housenumber": "40",
    "addr:postcode": "39520-000",
    "addr:street": "Rua Marechal Deodoro da Fonseca",
    "addr:suburb": "Centro",
    "check_date": "2025-06-15",
    "contact:instagram": "https://www.instagram.com/oticaisisprimeoficial",
    "currency:BRL": "yes",
    "currency:XBT": "yes",
    "description": "Loja 2",
    "lat": "-15.7449879",
    "lon": "-43.0267659",
    "name": "√ìtica √çsis Prime",
    "payment:apple_pay": "yes",
    "payment:credit_cards": "yes",
    "payment:google_pay": "yes",
    "payment:lightning": "yes",
    "payment:lightning_contactless": "yes",
    "payment:onchain": "yes",
    "phone": "+55 38 99840-4041",
    "shop": "optician",
    "survey:date": "2025-06-15",
    "website": "https://beacons.ai/oticaisisprime"
  }
},
{
  "type": "node",
  "id": 12917754509,
  "lat": -15.3689877,
  "lon": -43.6541870,
  "tags": {
    "CBTC": "BitcoinBH",
    "OBTC": "UAIBIT",
    "access": "yes",
    "addr:city": "Ja√≠ba - MG",
    "addr:housenumber": "695",
    "addr:postcode": "39508-000",
    "addr:street": "Avenida Corone Moacir Jos√© da Silva, 695, Ja√≠ba - MG, 39508-000",
    "check_date": "2025-06-15",
    "contact:instagram": "https://www.instagram.com/oticaisisprimeoficial",
    "currency:BRL": "yes",
    "currency:XBT": "yes",
    "description": "Loja 4",
    "lat": "-15.3689427",
    "lon": "-43.6542047",
    "name": "√ìtica √çsis Prime",
    "opening_hours": "Mo-Fr 8:00-18:00 Sa 8:00-13:00",
    "payment:apple_pay": "yes",
    "payment:credit_cards": "yes",
    "payment:google_pay": "yes",
    "payment:lightning": "yes",
    "payment:lightning_contactless": "yes",
    "payment:onchain": "yes",
    "phone": "+55 38 99985-3660",
    "shop": "optician",
    "survey:date": "2025-06-15",
    "website": "https://beacons.ai/oticaisisprime"
  }
},
{
  "type": "node",
  "id": 12917823006,
  "lat": -15.8048181,
  "lon": -43.3086140,
  "tags": {
    "CBTC": "BitcoinBH",
    "OBTC": "UAIBIT",
    "access": "yes",
    "addr:city": "Jana√∫ba - MG",
    "addr:housenumber": "412",
    "addr:postcode": "39442-016",
    "addr:street": "Avenida do Com√©rcio",
    "addr:suburb": "Centro",
    "check_date": "2025-06-15",
    "contact:instagram": "https://www.instagram.com/oticaisisprimeoficial",
    "currency:BRL": "yes",
    "currency:XBT": "yes",
    "description": "Loja 5",
    "lat": "-15.8048716",
    "lon": "-43.3083679",
    "name": "√ìtica √çsis Prime",
    "opening_hours": "Mo-Fr 8:00-18:00 Sa 8:00-13:00",
    "payment:apple_pay": "yes",
    "payment:credit_cards": "yes",
    "payment:google_pay": "yes",
    "payment:lightning": "yes",
    "payment:lightning_contactless": "yes",
    "payment:onchain": "yes",
    "phone": "+55 38 99755-2657",
    "shop": "optician",
    "survey:date": "2025-06-15",
    "website": "https://beacons.ai/oticaisisprime"
  }
},
{
  "type": "node",
  "id": 12917852227,
  "lat": -15.3970233,
  "lon": -42.8638879,
  "tags": {
    "CBTC": "BitcoinBH",
    "OBTC": "UAIBIT",
    "access": "yes",
    "addr:city": "Mato Verde - MG",
    "addr:housenumber": "272",
    "addr:postcode": "39527-000",
    "addr:street": "Rua Rui da Silveira Machado",
    "check_date": "2025-06-15",
    "contact:instagram": "https://www.instagram.com/oticaisisprimeoficial",
    "currency:BRL": "yes",
    "currency:XBT": "yes",
    "description": "Loja 6",
    "lat": "-15.3970446",
    "lon": "-42.8639638",
    "name": "√ìtica √çsis Prime",
    "opening_hours": "Mo-Fr 8:00-18:00 Sa 8:00-13:00",
    "payment:apple_pay": "yes",
    "payment:credit_cards": "yes",
    "payment:google_pay": "yes",
    "payment:lightning": "yes",
    "payment:lightning_contactless": "yes",
    "payment:onchain": "yes",
    "phone": "+55 38 99904 6317",
    "shop": "optician",
    "survey:date": "2025-06-15",
    "website": "https://beacons.ai/oticaisisprime"
  }
},
{
  "type": "node",
  "id": 12917855385,
  "lat": -15.5321239,
  "lon": -43.0650391,
  "tags": {
    "CBTC": "BitcoinBH",
    "OBTC": "UAIBIT",
    "access": "yes",
    "addr:city": "Pai Pedro - MG",
    "addr:postcode": "39517-000",
    "addr:street": "Rua Guilhermino Tolentino Pinto",
    "addr:suburb": "centro",
    "check_date": "2025-06-15",
    "contact:instagram": "https://www.instagram.com/oticaisisprimeoficial",
    "currency:BRL": "yes",
    "currency:XBT": "yes",
    "description": "Palloma Fashion loja 7",
    "lat": "-15.5321092",
    "lon": "-43.0651856",
    "name": "√ìtica √çsis Prime",
    "opening_hours": "Mo-Fr 8:00-18:00 Sa 8:00-13:00",
    "payment:apple_pay": "yes",
    "payment:credit_cards": "yes",
    "payment:google_pay": "yes",
    "payment:lightning": "yes",
    "payment:lightning_contactless": "yes",
    "payment:onchain": "yes",
    "shop": "optician",
    "survey:date": "2025-06-15",
    "website": "https://beacons.ai/oticaisisprime"
  }
},
{
  "type": "node",
  "id": 12949780709,
  "lat": -20.0241476,
  "lon": -44.0604611,
  "tags": {
    "CBTC": "BitcoinBH",
    "OBTC": "UAIBIT",
    "access": "yes",
    "addr:city": "Ibirit√© - MG",
    "addr:housenumber": "184",
    "addr:postcode": "32400-197",
    "addr:street": "R. Silveira",
    "addr:suburb": "Centro",
    "check_date": "2025-06-24",
    "contact:instagram": "https://www.instagram.com/embalagensm2b",
    "currency:BRL": "yes",
    "currency:XBT": "yes",
    "description": "Loja de venda de embalagens",
    "lat": "-20.0241615",
    "lon": "-44.060795",
    "man_made": "works",
    "name": "Embalagens M2B",
    "opening_hours": "Su-Fr 7:50-17:38",
    "payment:apple_pay": "yes",
    "payment:credit_cards": "yes",
    "payment:google_pay": "yes",
    "payment:lightning": "yes",
    "payment:lightning_contactless": "yes",
    "payment:onchain": "yes",
    "phone": "+55 31 3533 4049",
    "shop": "other",
    "survey:date": "2025-06-24",
    "website": "https://embalagensm2b.com.br"
  }
},
{
  "type": "node",
  "id": 12949789896,
  "lat": -20.0242207,
  "lon": -44.0604825,
  "tags": {
    "CBTC": "BitcoinBH",
    "OBTC": "UAIBIT",
    "access": "yes",
    "addr:city": "Ibirit√© - MG",
    "addr:housenumber": "184",
    "addr:postcode": "32400-197",
    "addr:street": "R. N. Silveira",
    "addr:suburb": "Centro",
    "check_date": "2025-06-24",
    "currency:BRL": "yes",
    "currency:XBT": "yes",
    "description": "Loja de venda de embalagens",
    "lat": "-20.0241615",
    "lon": "-44.060795",
    "name": "Revolu√ß√£o Empresarial",
    "opening_hours": "Su-Fr 9:00-18:00",
    "payment:apple_pay": "yes",
    "payment:credit_cards": "yes",
    "payment:google_pay": "yes",
    "payment:lightning": "yes",
    "payment:lightning_contactless": "yes",
    "payment:onchain": "yes",
    "shop": "other",
    "survey:date": "2025-06-24",
    "website": "https://revolucaoempresarial.com.br"
  }
},
{
  "type": "node",
  "id": 12966658745,
  "lat": -15.7439331,
  "lon": -43.0257031,
  "tags": {
    "CBTC": "BitcoinBH",
    "OBTC": "UAIBIT",
    "access": "yes",
    "addr:city": "Porteirinha - MG",
    "addr:housenumber": "228",
    "addr:postcode": "39520-000",
    "addr:street": "Pra√ßa Tiradentes",
    "addr:suburb": "Centro",
    "check_date": "2025-07-01",
    "contact:instagram": "https://www.instagram.com/oticaisisprimeoficial",
    "currency:BRL": "yes",
    "currency:XBT": "yes",
    "description": "Dr. Emerson Guimar√£es Eye Clinic",
    "lat": "-15.7439053",
    "lon": "-43.0257491",
    "name": "√≥tica √çsis Prime",
    "opening_hours": "Mo-Fr 7:00-18:00 Sat 7:00-13:00",
    "payment:apple_pay": "yes",
    "payment:credit_cards": "yes",
    "payment:google_pay": "yes",
    "payment:lightning": "yes",
    "payment:lightning_contactless": "yes",
    "payment:onchain": "yes",
    "phone": "+55 31 38311540",
    "shop": "optician",
    "survey:date": "2025-07-01",
    "website": "https://beacons.ai/oticaisisprime"
  }
},
{
  "type": "node",
  "id": 12966703441,
  "lat": -19.5975027,
  "lon": -43.8819194,
  "tags": {
    "CBTC": "LagoaBitcoin",
    "OBTC": "UAIBIT",
    "access": "yes",
    "addr:city": "Lagoa Santa - MG",
    "addr:housenumber": "775",
    "addr:postcode": "33235-026",
    "addr:street": "Alameda Ac√°cia Imperial",
    "addr:suburb": "Jardim Flamboyant",
    "check_date": "2025-07-01",
    "contact:instagram": "https://www.instagram.com/attackclube/",
    "currency:BRL": "yes",
    "currency:XBT": "yes",
    "description": "Clube de tiro e ca√ßa",
    "lat": "-19.597509",
    "leisure": "sports_centre",
    "lon": "-43.881961",
    "name": "Attack Clube de tiro e ca√ßa",
    "opening_hours": "Mo-Sa 9:00-1800",
    "payment:apple_pay": "yes",
    "payment:credit_cards": "yes",
    "payment:google_pay": "yes",
    "payment:lightning": "yes",
    "payment:lightning_contactless": "yes",
    "payment:onchain": "yes",
    "phone": "+55 31 3424 6929",
    "sport": "shooting",
    "survey:date": "2025-07-01",
    "website": "https://www.attackclubedetiroecaca.com.br/"
  }
},
{
  "type": "node",
  "id": 12990459331,
  "lat": -27.0948597,
  "lon": -52.6167866,
  "tags": {
    "CBTC": "BitcoinChapeco",
    "OBTC": "UAIBIT",
    "access": "yes",
    "addr:city": "chapeco",
    "addr:housenumber": "1128",
    "addr:postcode": "89801-000",
    "addr:street": "Avenida Get√∫lio Dorneles Vargas N",
    "addr:suburb": "centro",
    "check_date": "2025-07-08",
    "contact:instagram": "https://www.instagram.com/micell.cco?igsh=b3Mycmc5YXZmeW9x",
    "currency:BRL": "yes",
    "currency:XBT": "yes",
    "description": "Acessorios para celulares",
    "lat": "-27.0948775",
    "lon": "-52.6168138",
    "name": "MI Cell",
    "opening_hours": "segunda a sexta das 09:00 as 17:00",
    "payment:apple_pay": "yes",
    "payment:credit_cards": "yes",
    "payment:google_pay": "yes",
    "payment:lightning": "yes",
    "payment:lightning_contactless": "yes",
    "payment:onchain": "yes",
    "phone": "(49) 99117-4731",
    "shop": "mobile_phone",
    "survey:date": "2025-07-08"
  }
},
{
  "type": "node",
  "id": 13013672648,
  "lat": -3.8341669,
  "lon": -38.5709252,
  "tags": {
    "CBTC": "FortalBitcoin",
    "OBTC": "UAIBIT",
    "access": "yes",
    "addr:city": "Fortaleza - CE",
    "addr:housenumber": "1441",
    "addr:postcode": "60766-280",
    "addr:street": "Avenida Para√≠so",
    "addr:suburb": "Planalto Ayrton Senna",
    "amenity": "bar",
    "check_date": "2025-07-20",
    "contact:instagram": "https://www.instagram.com/magodosdrinks",
    "currency:BRL": "yes",
    "currency:XBT": "yes",
    "lat": "-3.8339022",
    "lon": "-38.5708975",
    "name": "Mago dos Drinks",
    "opening_hours": "Mo-Su 8:00-19:00",
    "payment:apple_pay": "yes",
    "payment:credit_cards": "yes",
    "payment:google_pay": "yes",
    "payment:lightning": "yes",
    "payment:lightning_contactless": "yes",
    "payment:onchain": "yes",
    "phone": "+55 85 98174 4324",
    "shop": "alcohol",
    "survey:date": "2025-07-20",
    "website": "https://magodosdrinks.com.br/"
  }
},
{
  "type": "node",
  "id": 13013714556,
  "lat": -17.0830265,
  "lon": -40.9349476,
  "tags": {
    "CBTC": "FormosaBitcoin",
    "OBTC": "UAIBIT",
    "access": "yes",
    "addr:city": "MG",
    "addr:housenumber": "60",
    "addr:postcode": "39880-000",
    "addr:street": "Avenida Bias Fortes",
    "addr:suburb": "√Åguas Formosas",
    "check_date": "2025-07-20",
    "contact:instagram": "https://www.instagram.com/pastello_af",
    "currency:BRL": "yes",
    "currency:XBT": "yes",
    "lat": "-17.0831967",
    "lon": "-40.9349056",
    "name": "Pastello",
    "opening_hours": "Mo-Su 9:00-21:00",
    "payment:apple_pay": "yes",
    "payment:credit_cards": "yes",
    "payment:google_pay": "yes",
    "payment:lightning": "yes",
    "payment:lightning_contactless": "yes",
    "payment:onchain": "yes",
    "phone": "+55 33 99835-8526",
    "shop": "food",
    "survey:date": "2025-07-20",
    "website": "https://www.instagram.com/pastello_af"
  }
},
{
  "type": "node",
  "id": 13025316214,
  "lat": -27.0928616,
  "lon": -52.6111796,
  "tags": {
    "CBTC": "Bitcoin Chapec√≥",
    "OBTC": "UAIBIT",
    "addr:city": "Chapeco",
    "addr:housenumber": "620 e",
    "addr:postcode": "89801-213",
    "addr:street": "Rua rio de janeiro",
    "addr:suburb": "Presidente medice",
    "check_date": "2025-07-25",
    "contact:instagram": "https://www.instagram.com/michel_ebertz_?igsh=c2VhdDlwMGJ6M3hv",
    "currency:BRL": "yes",
    "currency:XBT": "yes",
    "description": "Escola de Artes Marciais",
    "lat": "-27.0922364",
    "lon": "-52.6166878",
    "name": "Academia Michel Ebertz Jiu-Jitsu",
    "opening_hours": "Segunda e Quarta das 16 at√© 21 hrs / Ter√ßas e Quintas das 10 as 12 hrs e / das 16 at√© 21 hrs",
    "payment:apple_pay": "yes",
    "payment:credit_cards": "yes",
    "payment:google_pay": "yes",
    "payment:lightning": "yes",
    "payment:lightning_contactless": "yes",
    "payment:onchain": "yes",
    "phone": "+55 49-999158181",
    "shop": "other",
    "survey:date": "2025-07-25"
  }
},
{
  "type": "node",
  "id": 13025922164,
  "lat": -20.0605826,
  "lon": -43.9847971,
  "tags": {
    "CBTC": "BitcoinBH",
    "OBTC": "UAIBIT",
    "access": "yes",
    "addr:city": "Nova Lima - MG",
    "addr:housenumber": "1450",
    "addr:postcode": "34007-634",
    "addr:street": "Avenida Quebec",
    "addr:suburb": "Jardim Canada",
    "amenity": "bar",
    "check_date": "2025-07-26",
    "currency:BRL": "yes",
    "currency:XBT": "yes",
    "lat": "-20.0605307",
    "lon": "-43.9851231",
    "name": "Experimente Projetos Gastronomicos",
    "payment:apple_pay": "yes",
    "payment:credit_cards": "yes",
    "payment:google_pay": "yes",
    "payment:lightning": "yes",
    "payment:lightning_contactless": "yes",
    "payment:onchain": "yes",
    "shop": "alcohol",
    "survey:date": "2025-07-26"
  }
},
{
  "type": "node",
  "id": 13026574713,
  "lat": -17.0845787,
  "lon": -40.9344764,
  "tags": {
    "CBTC": "FormosaBitcoin",
    "OBTC": "UAIBIT",
    "access": "yes",
    "addr:city": "√Åguas Formosas - MG",
    "addr:housenumber": "4",
    "addr:postcode": "39.880-000",
    "addr:street": "Avenida Belo Horizonte",
    "addr:suburb": "Centro",
    "check_date": "2025-07-26",
    "contact:instagram": "https://www.instagram.com/rf_engenharia86",
    "currency:BRL": "yes",
    "currency:XBT": "yes",
    "lat": "-17.0848573",
    "lon": "-40.9354264",
    "name": "RF Engenharia",
    "office": "engineer",
    "opening_hours": "Mo-Su 9:00-19:00",
    "payment:apple_pay": "yes",
    "payment:credit_cards": "yes",
    "payment:google_pay": "yes",
    "payment:lightning": "yes",
    "payment:lightning_contactless": "yes",
    "payment:onchain": "yes",
    "phone": "+55 31 99204 5889",
    "survey:date": "2025-07-26",
    "website": "https://www.instagram.com/rf_engenharia86"
  }
},
{
  "type": "node",
  "id": 13030218803,
  "lat": -27.0904183,
  "lon": -52.5869028,
  "tags": {
    "CBTC": "Bitcoin Chapec√≥",
    "OBTC": "UAIBIT",
    "access": "yes",
    "addr:city": "Chapeco",
    "addr:housenumber": "250",
    "addr:postcode": "89806-265",
    "addr:street": "Rua J√∫lio Ant√¥nio Gasparetto",
    "addr:suburb": "Bairro paraiso",
    "check_date": "2025-07-27",
    "contact:instagram": "https://www.instagram.com/seco_minusculli?igsh=YW9hd3AzM2Q5cGk1",
    "currency:BRL": "yes",
    "currency:XBT": "yes",
    "description": "Servi√ßos de TI,  Servidores Linux/ Windows",
    "lat": "-27.1110472",
    "lon": "-52.5958977",
    "name": "Infocenter Inform√°tica",
    "opening_hours": "segunda a sexta das 09:00 as 17:30",
    "payment:apple_pay": "yes",
    "payment:credit_cards": "yes",
    "payment:google_pay": "yes",
    "payment:lightning": "yes",
    "payment:lightning_contactless": "yes",
    "payment:onchain": "yes",
    "phone": "+55 49 988438185",
    "shop": "computer",
    "survey:date": "2025-07-27"
  }
},
{
  "type": "node",
  "id": 13030526296,
  "lat": -27.0923538,
  "lon": -52.6029037,
  "tags": {
    "CBTC": "Bitcoin Chapec√≥",
    "OBTC": "UAIBIT",
    "access": "yes",
    "addr:city": "Chapeco",
    "addr:housenumber": "1426 D",
    "addr:postcode": "89801-142",
    "addr:street": "Rua: sete de setembro",
    "addr:suburb": "Bairro Presidentre medice",
    "check_date": "2025-07-27",
    "contact:instagram": "https://www.instagram.com/gestoraempresarial_?igsh=MTFreXJ4aTg4aXBrNQ==",
    "currency:BRL": "yes",
    "currency:XBT": "yes",
    "description": "Intermediadora de neg√≥cios, consultorias, desenvolvimento de Software.",
    "lat": "-27.1110472",
    "lon": "-52.5958977",
    "name": "Gestora consultoria planejamento e estrategias",
    "office": "financial_advisor",
    "opening_hours": "Mo-Fr 09:00-17:30",
    "payment:apple_pay": "yes",
    "payment:credit_cards": "yes",
    "payment:google_pay": "yes",
    "payment:lightning": "yes",
    "payment:lightning_contactless": "yes",
    "payment:onchain": "yes",
    "phone": "55 49 984100707",
    "survey:date": "2025-07-27"
  }
},
{
  "type": "node",
  "id": 13031733837,
  "lat": -27.1084827,
  "lon": -52.6159224,
  "tags": {
    "CBTC": "Bitcoin Chapec√≥",
    "OBTC": "UAIBIT",
    "access": "yes",
    "addr:city": "Chapeco",
    "addr:housenumber": "235 D",
    "addr:postcode": "89802-500",
    "addr:street": "Rua: uruguai",
    "addr:suburb": "Centro",
    "amenity": "dentist",
    "check_date": "2025-07-28",
    "contact:instagram": "https://www.instagram.com/draelianeturato?igsh=MXg2NzAxeHE0MG8xbQ==",
    "currency:BRL": "yes",
    "currency:XBT": "yes",
    "description": "CONSULTORIO ODONTOLOGICO,ODONTOLOGIA CIENTIFICA E AVAN√áADA",
    "lat": "-27.1110472",
    "lon": "-52.5958977",
    "name": "ODONTOLOGIA AVAN√áADA",
    "opening_hours": "segunda a sexta das 09:00 as 17:30",
    "payment:apple_pay": "yes",
    "payment:credit_cards": "yes",
    "payment:google_pay": "yes",
    "payment:lightning": "yes",
    "payment:lightning_contactless": "yes",
    "payment:onchain": "yes",
    "phone": "55 49 984100707",
    "survey:date": "2025-07-28"
  }
},
{
  "type": "node",
  "id": 13032063649,
  "lat": -27.0867848,
  "lon": -52.6107749,
  "tags": {
    "CBTC": "BitcoinChapeco",
    "OBTC": "UAIBIT",
    "access": "yes",
    "addr:city": "Chapeco",
    "addr:housenumber": "44 D",
    "addr:postcode": "89804-055",
    "addr:street": "Rua Jo√£o Batista zeca 44D(servid√£o",
    "addr:suburb": "Passo dos fortes",
    "check_date": "2025-07-28",
    "contact:instagram": "https://www.instagram.com/flexcarmecanica?igsh=MXhqcXZkdTdqeW1iZA==",
    "currency:BRL": "yes",
    "currency:XBT": "yes",
    "description": "Auto mec√¢nica, consertos de automoveis gerais.",
    "lat": "-27.1110472",
    "lon": "-52.5958977",
    "name": "Flex car auto mec√¢nica",
    "opening_hours": "segunda a sexta das 09:00 as 18:00",
    "payment:apple_pay": "yes",
    "payment:credit_cards": "yes",
    "payment:google_pay": "yes",
    "payment:lightning": "yes",
    "payment:lightning_contactless": "yes",
    "payment:onchain": "yes",
    "phone": "55 49 988009393",
    "shop": "car",
    "survey:date": "2025-07-28"
  }
},
{
  "type": "node",
  "id": 13034900647,
  "lat": -27.0781273,
  "lon": -52.6204826,
  "tags": {
    "CBTC": "Bitcoin Chapeco",
    "OBTC": "UAIBIT",
    "access": "yes",
    "addr:city": "Chapec√≥",
    "addr:housenumber": "113 D",
    "addr:postcode": "89.805-180",
    "addr:street": "Rua Peru",
    "addr:suburb": "Bairro: L√≠der",
    "check_date": "2025-07-29",
    "contact:instagram": "https://www.instagram.com/tiaryca.oficial?igsh=ZGZqZXVqcDBrNWJ1",
    "currency:BRL": "yes",
    "currency:XBT": "yes",
    "description": "Educa√ß√£o Financeira",
    "lat": "-27.1110472",
    "lon": "-52.5958977",
    "name": "Tia Ryca",
    "office": "educational_institution",
    "opening_hours": "Mo-Sa 09:00-18:00",
    "payment:apple_pay": "yes",
    "payment:credit_cards": "yes",
    "payment:google_pay": "yes",
    "payment:lightning": "yes",
    "payment:lightning_contactless": "yes",
    "payment:onchain": "yes",
    "phone": "55 49 984342828",
    "survey:date": "2025-07-29"
  }
},
{
  "type": "node",
  "id": 13071335479,
  "lat": -8.0868021,
  "lon": -34.8936295,
  "tags": {
    "CBTC": "BitcoinBH",
    "OBTC": "UAIBIT",
    "access": "yes",
    "addr:city": "Recife - PE",
    "addr:housenumber": "251 -1052",
    "addr:postcode": "51110-150",
    "addr:street": "Avenida Rep√∫blica do L√≠bano",
    "addr:suburb": "Pina",
    "check_date": "2025-08-14",
    "contact:instagram": "https://www.instagram.com/soffperfumes/",
    "currency:BRL": "yes",
    "currency:XBT": "yes",
    "description": "Shopping Riomar",
    "lat": "-8.0862746",
    "lon": "-34.8935974",
    "name": "Soff perfumes",
    "opening_hours": "Mon-Sat 9:00-2200 Sun 12:00-2100",
    "payment:apple_pay": "yes",
    "payment:credit_cards": "yes",
    "payment:google_pay": "yes",
    "payment:lightning": "yes",
    "payment:lightning_contactless": "yes",
    "payment:onchain": "yes",
    "phone": "081 3031 9240",
    "shop": "convenience",
    "survey:date": "2025-08-14",
    "website": "http://www.soff.com.br/"
  }
},
{
  "type": "node",
  "id": 13071366175,
  "lat": -19.7975111,
  "lon": -43.9901462,
  "tags": {
    "CBTC": "UAIBIT",
    "OBTC": "UAIBIT",
    "access": "yes",
    "addr:city": "Belo Horizonte",
    "addr:housenumber": "475",
    "addr:postcode": "31680320",
    "addr:street": "Rua das ch√°caras",
    "addr:suburb": "Mantiqueira",
    "check_date": "2025-08-14",
    "contact:instagram": "https://www.instagram.com/barbearia_stonks",
    "currency:BRL": "yes",
    "currency:XBT": "yes",
    "description": "Barbershop",
    "hairdresser": "barber",
    "lat": "-19.7978551",
    "lon": "-43.9902205",
    "name": "Stonk's Barbearia",
    "opening_hours": "Mo-Su 9:00-20:00 Sat 8:00-18:00",
    "payment:apple_pay": "yes",
    "payment:credit_cards": "yes",
    "payment:google_pay": "yes",
    "payment:lightning": "yes",
    "payment:lightning_contactless": "yes",
    "payment:onchain": "yes",
    "phone": "+55 31 99420 6373",
    "shop": "hairdresser",
    "survey:date": "2025-08-14",
    "website": "https://www.app.frizzar.com.br/p/barbeariastonks"
  }
},
{
  "type": "node",
  "id": 13073310955,
  "lat": -19.9516930,
  "lon": -44.1174588,
  "tags": {
    "CBTC": "UAIBIT",
    "OBTC": "UAIBIT",
    "access": "yes",
    "addr:city": "Betim - MG",
    "addr:housenumber": "401",
    "addr:postcode": "32681-630",
    "addr:street": "Avenida Duque de Caxias",
    "addr:suburb": "Jardim Teresopolis",
    "check_date": "2025-08-15",
    "contact:instagram": "https://www.instagram.com/tidas_bar",
    "currency:BRL": "yes",
    "currency:XBT": "yes",
    "lat": "-19.9518274",
    "lon": "-44.1173885",
    "name": "Tildas Bar",
    "opening_hours": "Mon-Thu 7:30-23:00 Fri-Sat 7:30-00:00 Sun 7:30-22:00",
    "payment:apple_pay": "yes",
    "payment:credit_cards": "yes",
    "payment:google_pay": "yes",
    "payment:lightning": "yes",
    "payment:lightning_contactless": "yes",
    "payment:onchain": "yes",
    "phone": "+55 31 3531 8412",
    "shop": "alcohol",
    "survey:date": "2025-08-15",
    "website": "https://www.instagram.com/tidas_bar"
  }
},
{
  "type": "node",
  "id": 13073334820,
  "lat": -19.9347128,
  "lon": -44.0994259,
  "tags": {
    "CBTC": "UAIBIT",
    "OBTC": "UAIBIT",
    "access": "yes",
    "addr:city": "Betim",
    "addr:housenumber": "67",
    "addr:postcode": "32678-508",
    "addr:street": "Rua Itambacury",
    "addr:suburb": "Capelinha",
    "amenity": "bar",
    "check_date": "2025-08-15",
    "contact:instagram": "https://www.instagram.com/tidas_bar",
    "currency:BRL": "yes",
    "currency:XBT": "yes",
    "lat": "-19.9347444",
    "lon": "-44.0994175",
    "name": "Tildas Bar",
    "opening_hours": "Mon-Thu 7:30-23:00 Fri-Sat 7:30-00:00 Sun 7:30-22:00",
    "payment:apple_pay": "yes",
    "payment:credit_cards": "yes",
    "payment:google_pay": "yes",
    "payment:lightning": "yes",
    "payment:lightning_contactless": "yes",
    "payment:onchain": "yes",
    "phone": "+55 31 3531 8412",
    "survey:date": "2025-08-15",
    "website": "https://www.instagram.com/tidas_bar"
  }
},
{
  "type": "node",
  "id": 13073385898,
  "lat": -20.0681321,
  "lon": -44.3101641,
  "tags": {
    "CBTC": "UAIBIT",
    "OBTC": "UAIBIT",
    "access": "yes",
    "addr:city": "Igarap√©",
    "addr:housenumber": "1020",
    "addr:postcode": "32900-000",
    "addr:street": "Avenida Professor Cl√≥vis Salgado",
    "addr:suburb": "Padre Eust√°quio",
    "amenity": "pub",
    "check_date": "2025-08-15",
    "contact:instagram": "https://www.instagram.com/tidas_igarape",
    "currency:BRL": "yes",
    "currency:XBT": "yes",
    "lat": "-20.0680297",
    "lon": "-44.3102244",
    "name": "Tildas Bar",
    "opening_hours": "Mon-Thu 7:30-23:00 Fri-Sat 7:30-00:00 Sun 7:30-22:00",
    "payment:apple_pay": "yes",
    "payment:credit_cards": "yes",
    "payment:google_pay": "yes",
    "payment:lightning": "yes",
    "payment:lightning_contactless": "yes",
    "payment:onchain": "yes",
    "phone": "+55 31 3531 8412",
    "shop": "alcohol",
    "survey:date": "2025-08-15",
    "website": "https://www.instagram.com/tidas_igarape"
  }
}

  ]
}
